{
    "links": {
        "self": "http://www.neowsapp.com/rest/v1/neo/3387785?api_key=iIulBulltgU6a56xZRHN4H3l9WmuAYTsLGpBGhQ2"
    },
    "id": "3387785",
    "neo_reference_id": "3387785",
    "name": "(2007 TT18)",
    "designation": "2007 TT18",
    "nasa_jpl_url": "http://ssd.jpl.nasa.gov/sbdb.cgi?sstr=3387785",
    "absolute_magnitude_h": 23.0,
    "estimated_diameter": {
        "kilometers": {
            "estimated_diameter_min": 0.0667659413,
            "estimated_diameter_max": 0.1492931834
        },
        "meters": {
            "estimated_diameter_min": 66.7659413495,
            "estimated_diameter_max": 149.2931834393
        },
        "miles": {
            "estimated_diameter_min": 0.0414864197,
            "estimated_diameter_max": 0.0927664547
        },
        "feet": {
            "estimated_diameter_min": 219.0483710172,
            "estimated_diameter_max": 489.807047955
        }
    },
    "is_potentially_hazardous_asteroid": false,
    "close_approach_data": [
        {
            "close_approach_date": "2007-10-17",
            "close_approach_date_full": "2007-Oct-17 21:29",
            "epoch_date_close_approach": 1192656540000,
            "relative_velocity": {
                "kilometers_per_second": "15.1947139031",
                "kilometers_per_hour": "54700.9700512957",
                "miles_per_hour": "33989.0555299287"
            },
            "miss_distance": {
                "astronomical": "0.0374559096",
                "lunar": "14.5703488344",
                "kilometers": "5603324.295072552",
                "miles": "3481744.2663311376"
            },
            "orbiting_body": "Earth"
        }
    ],
    "orbital_data": {
        "orbit_id": "12",
        "orbit_determination_date": "2017-04-06 09:05:47",
        "first_observation_date": "2007-10-09",
        "last_observation_date": "2007-10-18",
        "data_arc_in_days": 9,
        "observations_used": 52,
        "orbit_uncertainty": "8",
        "minimum_orbit_intersection": ".0349577",
        "jupiter_tisserand_invariant": "3.196",
        "epoch_osculation": "2454384.5",
        "eccentricity": ".6402548359920631",
        "semi_major_axis": "2.376945612374378",
        "inclination": "14.23206489225123",
        "ascending_node_longitude": "196.3327521290601",
        "orbital_period": "1338.527486483258",
        "perihelion_distance": ".8550946891615667",
        "perihelion_argument": "240.3331894151306",
        "aphelion_distance": "3.898796535587191",
        "perihelion_time": "2454428.861716176272",
        "mean_anomaly": "348.0688159303946",
        "mean_motion": ".2689522655570083",
        "equinox": "J2000",
        "orbit_class": {
            "orbit_class_type": "APO",
            "orbit_class_description": "Near-Earth asteroid orbits which cross the Earth’s orbit similar to that of 1862 Apollo",
            "orbit_class_range": "a (semi-major axis) > 1.0 AU; q (perihelion) < 1.017 AU"
        }
    },
    "is_sentry_object": false
}